0 INSAT 3E
1 27951U 03043E   13281.80212525  .00000073  00000-0  10000-3 0    56
2 27951 000.0204 119.3414 0006708 051.2017 190.9549 01.00270579 36762
0 INSAT 3E
1 27951U 03043E   13281.97265642  .00000072  00000-0  10000-3 0    62
2 27951 000.0210 118.5354 0006760 051.8242 252.6964 01.00270590 36767
0 INSAT 3E
1 27951U 03043E   13282.79780228  .00000070  00000-0  10000-3 0    74
2 27951 000.0335 088.4081 0006791 082.1164 190.3922 01.00270701 36778
0 INSAT 3E
1 27951U 03043E   13283.13468126  .00000068  00000-0  10000-3 0    81
2 27951 000.0369 078.4792 0006765 093.2921 310.7499 01.00270630 36776
0 INSAT 3E
1 27951U 03043E   13283.23923512 -.00000195  00000-0  10000-3 0    89
2 27951 000.0219 112.2816 0008036 054.1774 353.8316 01.00267967 35762
0 INSAT 3E
1 27951U 03043E   13283.91439214  .00000066  00000-0  10000-3 0    92
2 27951 000.0395 072.6587 0006917 098.3259 232.9976 01.00270753 36784
0 INSAT 3E
1 27951U 03043E   13283.91439214  .00000066  00000-0  10000-3 0   104
2 27951 000.0395 072.6587 0006917 098.3259 232.9976 01.00270753 36784
0 INSAT 3E
1 27951U 03043E   13283.91439214  .00000066  00000-0  10000-3 0   115
2 27951 000.0395 072.6587 0006917 098.3259 232.9976 01.00270753 36784
0 INSAT 3E
1 27951U 03043E   13283.91439214  .00000066  00000-0  10000-3 0   126
2 27951 000.0395 072.6587 0006917 098.3259 232.9976 01.00270753 36784
0 INSAT 3E
1 27951U 03043E   13286.11173453  .00000061  00000-0  10000-3 0   137
2 27951 000.0400 056.4019 0006816 116.8208 303.9478 01.00270305 36801
0 INSAT 3E
1 27951U 03043E   13286.11173453  .00000061  00000-0  10000-3 0   148
2 27951 000.0400 056.4019 0006816 116.8208 303.9478 01.00270305 36801
0 INSAT 3E
1 27951U 03043E   13288.14351810  .00000059  00000-0  10000-3 0   156
2 27951 000.0495 057.5648 0006826 122.0393 311.0065 01.00271497 36827
0 INSAT 3E
1 27951U 03043E   13288.14351810  .00000059  00000-0  10000-3 0   167
2 27951 000.0495 057.5648 0006826 122.0393 311.0065 01.00271497 36827
0 INSAT 3E
1 27951U 03043E   13289.15815572  .00000060  00000-0  10000-3 0   172
2 27951 000.0472 060.1929 0006764 122.4113 314.2702 01.00271673 36839
0 INSAT 3E
1 27951U 03043E   13289.15815572  .00000060  00000-0  10000-3 0   183
2 27951 000.0472 060.1929 0006764 122.4113 314.2702 01.00271673 36839
0 INSAT 3E
1 27951U 03043E   13289.93137005  .00000062  00000-0  10000-3 0   190
2 27951 000.0518 060.4193 0006608 123.0905 232.4800 01.00271646 36840
0 INSAT 3E
1 27951U 03043E   13289.93137005  .00000062  00000-0  10000-3 0   202
2 27951 000.0518 060.4193 0006608 123.0905 232.4800 01.00271646 36840
0 INSAT 3E
1 27951U 03043E   13290.98030852  .00000064  00000-0  10000-3 0   214
2 27951 000.0538 057.4568 0006786 126.6189 250.5656 01.00271921 36851
0 INSAT 3E
1 27951U 03043E   13290.98030852  .00000064  00000-0  10000-3 0   225
2 27951 000.0538 057.4568 0006786 126.6189 250.5656 01.00271921 36851
0 INSAT 3E
1 27951U 03043E   13290.98030852  .00000064  00000-0  10000-3 0   236
2 27951 000.0538 057.4568 0006786 126.6189 250.5656 01.00271921 36851
0 INSAT 3E
1 27951U 03043E   13290.98030852  .00000064  00000-0  10000-3 0   247
2 27951 000.0538 057.4568 0006786 126.6189 250.5656 01.00271921 36851
0 INSAT 3E
1 27951U 03043E   13294.02355443  .00000069  00000-0  10000-3 0   258
2 27951 000.0626 061.0811 0006680 126.5889 265.5430 01.00273094 36882
0 INSAT 3E
1 27951U 03043E   13294.02355443  .00000069  00000-0  10000-3 0   269
2 27951 000.0626 061.0811 0006680 126.5889 265.5430 01.00273094 36882
0 INSAT 3E
1 27951U 03043E   13294.60586867  .00000070  00000-0  10000-3 0   272
2 27951 000.0583 067.2880 0006049 118.1712 117.9759 01.00274130 36885
0 INSAT 3E
1 27951U 03043E   13294.60586867  .00000070  00000-0  10000-3 0   283
2 27951 000.0583 067.2880 0006049 118.1712 117.9759 01.00274130 36885
0 INSAT 3E
1 27951U 03043E   13295.73080762  .00000072  00000-0  10000-3 0   294
2 27951 000.0608 067.7643 0006664 110.5865 171.1809 01.00274252 36897
0 INSAT 3E
1 27951U 03043E   13295.73080762  .00000072  00000-0  10000-3 0   306
2 27951 000.0608 067.7643 0006664 110.5865 171.1809 01.00274252 36897
